<?xml version="1.0" encoding="UTF-8"?>
<ndm xmlns:xsi="http://www.w3.org/2001/XMLSchema-instance" xsi:noNamespaceSchemaLocation="https://sanaregistry.org/r/ndmxml_unqualified/ndmxml-2.0.0-master-2.0.xsd">
<omm id="CCSDS_OMM_VERS" version="2.0">
<header><CREATION_DATE/><ORIGINATOR/></header><body><segment><metadata><OBJECT_NAME>KUIPER-00061</OBJECT_NAME><OBJECT_ID>2025-134X</OBJECT_ID><CENTER_NAME>EARTH</CENTER_NAME><REF_FRAME>TEME</REF_FRAME><TIME_SYSTEM>UTC</TIME_SYSTEM><MEAN_ELEMENT_THEORY>SGP4</MEAN_ELEMENT_THEORY></metadata><data><meanElements><EPOCH>2026-01-26T11:55:36.404832</EPOCH><MEAN_MOTION>14.79956679</MEAN_MOTION><ECCENTRICITY>.0000766</ECCENTRICITY><INCLINATION>51.9020</INCLINATION><RA_OF_ASC_NODE>54.6605</RA_OF_ASC_NODE><ARG_OF_PERICENTER>70.4265</ARG_OF_PERICENTER><MEAN_ANOMALY>289.6779</MEAN_ANOMALY></meanElements><tleParameters><EPHEMERIS_TYPE>0</EPHEMERIS_TYPE><CLASSIFICATION_TYPE>U</CLASSIFICATION_TYPE><NORAD_CAT_ID>64521</NORAD_CAT_ID><ELEMENT_SET_NO>999</ELEMENT_SET_NO><REV_AT_EPOCH>3388</REV_AT_EPOCH><BSTAR>.10207E-2</BSTAR><MEAN_MOTION_DOT>.7573E-4</MEAN_MOTION_DOT><MEAN_MOTION_DDOT>0</MEAN_MOTION_DDOT></tleParameters></data></segment></body></omm>
<omm id="CCSDS_OMM_VERS" version="2.0">
<header><CREATION_DATE/><ORIGINATOR/></header><body><segment><metadata><OBJECT_NAME>KUIPER-00062</OBJECT_NAME><OBJECT_ID>2025-134Y</OBJECT_ID><CENTER_NAME>EARTH</CENTER_NAME><REF_FRAME>TEME</REF_FRAME><TIME_SYSTEM>UTC</TIME_SYSTEM><MEAN_ELEMENT_THEORY>SGP4</MEAN_ELEMENT_THEORY></metadata><data><meanElements><EPOCH>2026-01-26T12:00:43.940448</EPOCH><MEAN_MOTION>14.85253546</MEAN_MOTION><ECCENTRICITY>.0007182</ECCENTRICITY><INCLINATION>51.8972</INCLINATION><RA_OF_ASC_NODE>57.9704</RA_OF_ASC_NODE><ARG_OF_PERICENTER>144.3424</ARG_OF_PERICENTER><MEAN_ANOMALY>215.8022</MEAN_ANOMALY></meanElements><tleParameters><EPHEMERIS_TYPE>0</EPHEMERIS_TYPE><CLASSIFICATION_TYPE>U</CLASSIFICATION_TYPE><NORAD_CAT_ID>64522</NORAD_CAT_ID><ELEMENT_SET_NO>999</ELEMENT_SET_NO><REV_AT_EPOCH>3385</REV_AT_EPOCH><BSTAR>.81462E-3</BSTAR><MEAN_MOTION_DOT>.6836E-4</MEAN_MOTION_DOT><MEAN_MOTION_DDOT>0</MEAN_MOTION_DDOT></tleParameters></data></segment></body></omm>
<omm id="CCSDS_OMM_VERS" version="2.0">
<header><CREATION_DATE/><ORIGINATOR/></header><body><segment><metadata><OBJECT_NAME>KUIPER-00063</OBJECT_NAME><OBJECT_ID>2025-134Z</OBJECT_ID><CENTER_NAME>EARTH</CENTER_NAME><REF_FRAME>TEME</REF_FRAME><TIME_SYSTEM>UTC</TIME_SYSTEM><MEAN_ELEMENT_THEORY>SGP4</MEAN_ELEMENT_THEORY></metadata><data><meanElements><EPOCH>2026-01-26T06:47:43.935360</EPOCH><MEAN_MOTION>14.80093437</MEAN_MOTION><ECCENTRICITY>.0001121</ECCENTRICITY><INCLINATION>51.9020</INCLINATION><RA_OF_ASC_NODE>65.6057</RA_OF_ASC_NODE><ARG_OF_PERICENTER>41.6387</ARG_OF_PERICENTER><MEAN_ANOMALY>318.4661</MEAN_ANOMALY></meanElements><tleParameters><EPHEMERIS_TYPE>0</EPHEMERIS_TYPE><CLASSIFICATION_TYPE>U</CLASSIFICATION_TYPE><NORAD_CAT_ID>64523</NORAD_CAT_ID><ELEMENT_SET_NO>999</ELEMENT_SET_NO><REV_AT_EPOCH>3372</REV_AT_EPOCH><BSTAR>.99457E-3</BSTAR><MEAN_MOTION_DOT>.7398E-4</MEAN_MOTION_DOT><MEAN_MOTION_DDOT>0</MEAN_MOTION_DDOT></tleParameters></data></segment></body></omm>
<omm id="CCSDS_OMM_VERS" version="2.0">
<header><CREATION_DATE/><ORIGINATOR/></header><body><segment><metadata><OBJECT_NAME>KUIPER-00064</OBJECT_NAME><OBJECT_ID>2025-134AA</OBJECT_ID><CENTER_NAME>EARTH</CENTER_NAME><REF_FRAME>TEME</REF_FRAME><TIME_SYSTEM>UTC</TIME_SYSTEM><MEAN_ELEMENT_THEORY>SGP4</MEAN_ELEMENT_THEORY></metadata><data><meanElements><EPOCH>2026-01-26T08:29:26.902176</EPOCH><MEAN_MOTION>14.79875746</MEAN_MOTION><ECCENTRICITY>.0000635</ECCENTRICITY><INCLINATION>51.9031</INCLINATION><RA_OF_ASC_NODE>62.7189</RA_OF_ASC_NODE><ARG_OF_PERICENTER>79.6634</ARG_OF_PERICENTER><MEAN_ANOMALY>280.4400</MEAN_ANOMALY></meanElements><tleParameters><EPHEMERIS_TYPE>0</EPHEMERIS_TYPE><CLASSIFICATION_TYPE>U</CLASSIFICATION_TYPE><NORAD_CAT_ID>64524</NORAD_CAT_ID><ELEMENT_SET_NO>999</ELEMENT_SET_NO><REV_AT_EPOCH>3377</REV_AT_EPOCH><BSTAR>.10087E-2</BSTAR><MEAN_MOTION_DOT>.7467E-4</MEAN_MOTION_DOT><MEAN_MOTION_DDOT>0</MEAN_MOTION_DDOT></tleParameters></data></segment></body></omm>
<omm id="CCSDS_OMM_VERS" version="2.0">
<header><CREATION_DATE/><ORIGINATOR/></header><body><segment><metadata><OBJECT_NAME>KUIPER-00065</OBJECT_NAME><OBJECT_ID>2025-134AB</OBJECT_ID><CENTER_NAME>EARTH</CENTER_NAME><REF_FRAME>TEME</REF_FRAME><TIME_SYSTEM>UTC</TIME_SYSTEM><MEAN_ELEMENT_THEORY>SGP4</MEAN_ELEMENT_THEORY></metadata><data><meanElements><EPOCH>2026-01-26T09:56:06.266688</EPOCH><MEAN_MOTION>14.80218206</MEAN_MOTION><ECCENTRICITY>.0005377</ECCENTRICITY><INCLINATION>51.9027</INCLINATION><RA_OF_ASC_NODE>67.5870</RA_OF_ASC_NODE><ARG_OF_PERICENTER>139.8297</ARG_OF_PERICENTER><MEAN_ANOMALY>220.3063</MEAN_ANOMALY></meanElements><tleParameters><EPHEMERIS_TYPE>0</EPHEMERIS_TYPE><CLASSIFICATION_TYPE>U</CLASSIFICATION_TYPE><NORAD_CAT_ID>64525</NORAD_CAT_ID><ELEMENT_SET_NO>999</ELEMENT_SET_NO><REV_AT_EPOCH>3369</REV_AT_EPOCH><BSTAR>.99968E-3</BSTAR><MEAN_MOTION_DOT>.746E-4</MEAN_MOTION_DOT><MEAN_MOTION_DDOT>0</MEAN_MOTION_DDOT></tleParameters></data></segment></body></omm>
<omm id="CCSDS_OMM_VERS" version="2.0">
<header><CREATION_DATE/><ORIGINATOR/></header><body><segment><metadata><OBJECT_NAME>KUIPER-00066</OBJECT_NAME><OBJECT_ID>2025-134AC</OBJECT_ID><CENTER_NAME>EARTH</CENTER_NAME><REF_FRAME>TEME</REF_FRAME><TIME_SYSTEM>UTC</TIME_SYSTEM><MEAN_ELEMENT_THEORY>SGP4</MEAN_ELEMENT_THEORY></metadata><data><meanElements><EPOCH>2026-01-26T04:07:23.547648</EPOCH><MEAN_MOTION>15.22084369</MEAN_MOTION><ECCENTRICITY>.0001942</ECCENTRICITY><INCLINATION>51.8830</INCLINATION><RA_OF_ASC_NODE>25.0306</RA_OF_ASC_NODE><ARG_OF_PERICENTER>94.3192</ARG_OF_PERICENTER><MEAN_ANOMALY>265.8010</MEAN_ANOMALY></meanElements><tleParameters><EPHEMERIS_TYPE>0</EPHEMERIS_TYPE><CLASSIFICATION_TYPE>U</CLASSIFICATION_TYPE><NORAD_CAT_ID>64526</NORAD_CAT_ID><ELEMENT_SET_NO>999</ELEMENT_SET_NO><REV_AT_EPOCH>3428</REV_AT_EPOCH><BSTAR>.93649E-3</BSTAR><MEAN_MOTION_DOT>.2146E-3</MEAN_MOTION_DOT><MEAN_MOTION_DDOT>0</MEAN_MOTION_DDOT></tleParameters></data></segment></body></omm>
<omm id="CCSDS_OMM_VERS" version="2.0">
<header><CREATION_DATE/><ORIGINATOR/></header><body><segment><metadata><OBJECT_NAME>KUIPER-00069</OBJECT_NAME><OBJECT_ID>2025-151A</OBJECT_ID><CENTER_NAME>EARTH</CENTER_NAME><REF_FRAME>TEME</REF_FRAME><TIME_SYSTEM>UTC</TIME_SYSTEM><MEAN_ELEMENT_THEORY>SGP4</MEAN_ELEMENT_THEORY></metadata><data><meanElements><EPOCH>2026-01-26T12:11:23.096544</EPOCH><MEAN_MOTION>14.79843613</MEAN_MOTION><ECCENTRICITY>.0002616</ECCENTRICITY><INCLINATION>51.9017</INCLINATION><RA_OF_ASC_NODE>107.1436</RA_OF_ASC_NODE><ARG_OF_PERICENTER>158.2991</ARG_OF_PERICENTER><MEAN_ANOMALY>201.8083</MEAN_ANOMALY></meanElements><tleParameters><EPHEMERIS_TYPE>0</EPHEMERIS_TYPE><CLASSIFICATION_TYPE>U</CLASSIFICATION_TYPE><NORAD_CAT_ID>64816</NORAD_CAT_ID><ELEMENT_SET_NO>999</ELEMENT_SET_NO><REV_AT_EPOCH>3051</REV_AT_EPOCH><BSTAR>.40251E-2</BSTAR><MEAN_MOTION_DOT>.30539E-3</MEAN_MOTION_DOT><MEAN_MOTION_DDOT>0</MEAN_MOTION_DDOT></tleParameters></data></segment></body></omm>
<omm id="CCSDS_OMM_VERS" version="2.0">
<header><CREATION_DATE/><ORIGINATOR/></header><body><segment><metadata><OBJECT_NAME>KUIPER-00070</OBJECT_NAME><OBJECT_ID>2025-151B</OBJECT_ID><CENTER_NAME>EARTH</CENTER_NAME><REF_FRAME>TEME</REF_FRAME><TIME_SYSTEM>UTC</TIME_SYSTEM><MEAN_ELEMENT_THEORY>SGP4</MEAN_ELEMENT_THEORY></metadata><data><meanElements><EPOCH>2026-01-26T12:21:13.012416</EPOCH><MEAN_MOTION>14.79939144</MEAN_MOTION><ECCENTRICITY>.0003178</ECCENTRICITY><INCLINATION>51.8980</INCLINATION><RA_OF_ASC_NODE>132.0557</RA_OF_ASC_NODE><ARG_OF_PERICENTER>142.5227</ARG_OF_PERICENTER><MEAN_ANOMALY>217.5957</MEAN_ANOMALY></meanElements><tleParameters><EPHEMERIS_TYPE>0</EPHEMERIS_TYPE><CLASSIFICATION_TYPE>U</CLASSIFICATION_TYPE><NORAD_CAT_ID>64817</NORAD_CAT_ID><ELEMENT_SET_NO>999</ELEMENT_SET_NO><REV_AT_EPOCH>3017</REV_AT_EPOCH><BSTAR>.38767E-3</BSTAR><MEAN_MOTION_DOT>.2735E-4</MEAN_MOTION_DOT><MEAN_MOTION_DDOT>0</MEAN_MOTION_DDOT></tleParameters></data></segment></body></omm>

</ndm>
