KUIPER-00061            
1 64521U 25134X   26026.49694913  .00007573  00000+0  10207-2 0  9997
2 64521  51.9020  54.6605 0000766  70.4265 289.6779 14.79956679 33889
KUIPER-00062            
1 64522U 25134Y   26026.50050857  .00006836  00000+0  81462-3 0  9996
2 64522  51.8972  57.9704 0007182 144.3424 215.8022 14.85253546 33857
KUIPER-00063            
1 64523U 25134Z   26026.28314740  .00007398  00000+0  99457-3 0  9993
2 64523  51.9020  65.6057 0001121  41.6387 318.4661 14.80093437 33725
KUIPER-00064            
1 64524U 25134AA  26026.35378359  .00007467  00000+0  10087-2 0  9996
2 64524  51.9031  62.7189 0000635  79.6634 280.4400 14.79875746 33770
KUIPER-00065            
1 64525U 25134AB  26026.41396142  .00007460  00000+0  99968-3 0  9993
2 64525  51.9027  67.5870 0005377 139.8297 220.3063 14.80218206 33691
KUIPER-00066            
1 64526U 25134AC  26026.17180032  .00021460  00000+0  93649-3 0  9992
2 64526  51.8830  25.0306 0001942  94.3192 265.8010 15.22084369 34289
KUIPER-00069            
1 64816U 25151A   26026.50790621  .00030539  00000+0  40251-2 0  9998
2 64816  51.9017 107.1436 0002616 158.2991 201.8083 14.79843613 30519
KUIPER-00070            
1 64817U 25151B   26026.51473394  .00002735  00000+0  38767-3 0  9992
2 64817  51.8980 132.0557 0003178 142.5227 217.5957 14.79939144 30172
